[Satellite]
VERSION=1.1
NAME=RADUGA 30 [-]
NICKNAME=RADUGA 30 [-]
TLE1=1 22836U 93062A   15050.91680353 -.00000075  00000-0  00000+0 0  9999
TLE2=2 22836  14.2233  24.6432 0004435 190.2669 334.8303  1.00280673 78307
